     2.10           N: GPS NAV DATA                         RINEX VERSION / TYPE
sbf2rin-12.1.2                          12-APR-21 20:13     PGM / RUN BY / DATE 
    1.1176E-08  1.4901E-08 -5.9605E-08 -5.9605E-08          ION ALPHA           
    8.8064E+04  1.6384E+04 -1.9661E+05 -1.3107E+05          ION BETA            
   -3.725290298462E-09-3.552713678801E-15   503808     2152 DELTA-UTC: A0,A1,T,W
    18                                                      LEAP SECONDS        
                                                            END OF HEADER       
13 21  4  6 22  0  0.0 1.168060116470E-04 4.547473508865E-12 0.000000000000E+00
    7.300000000000E+01-6.875000000000E+00 4.043739866568E-09 2.933506568643E+00
   -3.296881914139E-07 4.906493239105E-03 1.102685928345E-05 5.153682352066E+03
    2.520000000000E+05 4.097819328308E-08-3.447272666115E-01 5.587935447693E-08
    9.684331294356E-01 1.705625000000E+02 9.955189216219E-01-7.627460571492E-09
    3.503717372464E-10 1.000000000000E+00 2.152000000000E+03 0.000000000000E+00
    2.000000000000E+00 0.000000000000E+00-1.117587089539E-08 7.300000000000E+01
    2.448180000000E+05 4.000000000000E+00
13 21  4  7 18  0  0.0 1.171333715320E-04 4.547473508865E-12 0.000000000000E+00
    1.700000000000E+01-2.784375000000E+01 4.093027633887E-09 8.694004087596E-01
   -1.531094312668E-06 4.906283109449E-03 1.155026257038E-05 5.153687131882E+03
    3.240000000000E+05-1.303851604462E-08-3.452851650502E-01 4.284083843231E-08
    9.684472334288E-01 1.600000000000E+02 9.949752822457E-01-7.824254483034E-09
    2.257236880119E-10 1.000000000000E+00 2.152000000000E+03 0.000000000000E+00
    2.000000000000E+00 0.000000000000E+00-1.117587089539E-08 1.700000000000E+01
    3.188460000000E+05 4.000000000000E+00
14 21  4  7  0  0  0.0 9.767943993211E-05-2.160049916711E-12 0.000000000000E+00
    1.450000000000E+02-1.400000000000E+01 4.717696510996E-09 1.659774347144E+00
   -7.487833499908E-07 5.359788192436E-04 7.156282663345E-06 5.153746171951E+03
    2.592000000000E+05-2.793967723846E-08 1.663729795287E+00 2.235174179077E-08
    9.574048293312E-01 2.410312500000E+02 2.434460516732E+00-8.147125074747E-09
   -3.110843864848E-10 1.000000000000E+00 2.152000000000E+03 0.000000000000E+00
    2.000000000000E+00 0.000000000000E+00-7.916241884232E-09 9.130000000000E+02
    2.520180000000E+05 4.000000000000E+00
14 21  4  7 18  0  0.0 9.754113852978E-05-2.160049916711E-12 0.000000000000E+00
    1.550000000000E+02-1.821875000000E+01 4.917347684412E-09-1.457145049037E+00
   -9.667128324509E-07 5.404284456745E-04 6.690621376038E-06 5.153742654800E+03
    3.240000000000E+05 1.676380634308E-08 1.663201001603E+00-5.215406417847E-08
    9.573753968824E-01 2.505312500000E+02 2.436263711020E+00-8.233200088688E-09
   -4.210889686172E-10 1.000000000000E+00 2.152000000000E+03 0.000000000000E+00
    2.000000000000E+00 0.000000000000E+00-7.916241884232E-09 9.230000000000E+02
    3.188460000000E+05 4.000000000000E+00
15 21  4  6 22  0  0.0-1.579537056386E-04 2.614797267597E-12 0.000000000000E+00
    3.600000000000E+01-4.828125000000E+01 4.906275794652E-09 2.597783309725E+00
   -2.542510628700E-06 1.307532784995E-02 1.127645373344E-05 5.153595405579E+03
    2.520000000000E+05 7.450580596924E-08-5.902130541371E-01-1.341104507446E-07
    9.290868900040E-01 1.429375000000E+02 9.746555476186E-01-7.954617056015E-09
    1.928651764659E-10 1.000000000000E+00 2.152000000000E+03 0.000000000000E+00
    2.000000000000E+00 0.000000000000E+00-1.071020960808E-08 3.600000000000E+01
    2.448180000000E+05 4.000000000000E+00
17 21  4  7  0  0  0.0 4.222318530083E-04 6.025402399246E-12 0.000000000000E+00
    7.100000000000E+01 5.231250000000E+01 3.880875939775E-09-1.730723950251E+00
    3.039836883545E-06 1.336451829411E-02 9.400770068169E-06 5.153582778931E+03
    2.592000000000E+05 1.005828380585E-07 2.725996732980E+00 2.980232238770E-07
    9.826695298903E-01 2.097500000000E+02-1.570223891339E+00-7.619960259073E-09
    5.214502919263E-11 1.000000000000E+00 2.152000000000E+03 0.000000000000E+00
    2.000000000000E+00 0.000000000000E+00-1.117587089539E-08 7.100000000000E+01
    2.520180000000E+05 4.000000000000E+00
19 21  4  7  0  0  0.0-1.632468774915E-05 5.002220859751E-12 0.000000000000E+00
    9.100000000000E+01 4.337500000000E+01 3.987308944565E-09 7.881830298440E-01
    2.263113856316E-06 9.162146481685E-03 9.486451745033E-06 5.153633350372E+03
    2.592000000000E+05-1.396983861923E-07 2.771186436295E+00-1.043081283569E-07
    9.811731768183E-01 2.108437500000E+02 1.804738978234E+00-7.898186134012E-09
    6.464554988949E-11 1.000000000000E+00 2.152000000000E+03 0.000000000000E+00
    2.000000000000E+00 0.000000000000E+00-1.583248376846E-08 9.100000000000E+01
    2.520180000000E+05 4.000000000000E+00
20 21  4  6 20  0  0.0 5.234451964498E-04-3.410605131648E-13 0.000000000000E+00
    5.700000000000E+01-9.134375000000E+01 5.192001982008E-09-9.016333655630E-02
   -4.934147000313E-06 6.035217666067E-03 4.297122359276E-06 5.151699459076E+03
    2.448000000000E+05 1.750886440277E-07-1.666815822438E+00 1.117587089539E-08
    9.372566174602E-01 2.873437500000E+02 3.018988473719E+00-8.671075470813E-09
   -2.875119760278E-10 1.000000000000E+00 2.152000000000E+03 0.000000000000E+00
    2.000000000000E+00 0.000000000000E+00-8.381903171539E-09 5.700000000000E+01
    2.376180000000E+05 4.000000000000E+00
21 21  4  6 22  0  0.0 1.090313307941E-04 2.842170943040E-12 0.000000000000E+00
    9.400000000000E+01 5.725000000000E+01 4.641621913612E-09-2.572444920519E+00
    3.229826688766E-06 2.419508481398E-02 3.488734364510E-06 5.153705875397E+03
    2.520000000000E+05 9.685754776001E-08-2.643228551182E+00 3.408640623093E-07
    9.568077027442E-01 3.050312500000E+02-1.159191669489E+00-7.920329913532E-09
    2.946551307118E-10 1.000000000000E+00 2.152000000000E+03 0.000000000000E+00
    2.000000000000E+00 0.000000000000E+00-1.024454832077E-08 9.400000000000E+01
    2.452680000000E+05 4.000000000000E+00
23 21  4  6 20  0  0.0 1.148227602243E-04-1.818989403546E-12 0.000000000000E+00
    2.000000000000E+01-9.775000000000E+01 4.443756528868E-09-9.478813262619E-02
   -5.155801773071E-06 1.097274478525E-03 5.738809704781E-06 5.153650539398E+03
    2.448000000000E+05 1.098960638046E-07-1.548727468796E+00-9.872019290924E-08
    9.633250437491E-01 2.752187500000E+02 2.555667061243E+00-8.141767708734E-09
   -3.067984936744E-10 1.000000000000E+00 2.152000000000E+03 0.000000000000E+00
    2.000000000000E+00 0.000000000000E+00-8.381903171539E-09 5.320000000000E+02
    2.395980000000E+05 4.000000000000E+00
24 21  4  7  0  0  0.0 9.592622518539E-08-4.547473508865E-13 0.000000000000E+00
    8.700000000000E+01 4.009375000000E+01 5.132713798132E-09 2.751937206602E+00
    2.004206180573E-06 1.102583785541E-02 6.461516022682E-06 5.153733957291E+03
    2.592000000000E+05-1.862645149231E-09 5.022981802440E-01-1.136213541031E-07
    9.355045477709E-01 2.410312500000E+02 7.385234066700E-01-8.208556205029E-09
    2.971552348511E-10 1.000000000000E+00 2.152000000000E+03 0.000000000000E+00
    2.000000000000E+00 0.000000000000E+00 2.793967723846E-09 8.700000000000E+01
    2.520180000000E+05 4.000000000000E+00
25 21  4  6 23 59 44.0 1.136427745223E-04 7.275957614183E-12 0.000000000000E+00
    1.400000000000E+01-6.250000000000E-02 4.671980321019E-09 7.469676536296E-01
   -1.993030309677E-07 9.931578184478E-03 7.119029760361E-06 5.153641672134E+03
    2.591840000000E+05-6.519258022308E-08 1.617198503929E+00 6.332993507385E-08
    9.612484871264E-01 2.435937500000E+02 9.585585391936E-01-8.239628927904E-09
   -4.146601294017E-10 1.000000000000E+00 2.152000000000E+03 0.000000000000E+00
    2.000000000000E+00 0.000000000000E+00 5.587935447693E-09 1.400000000000E+01
    2.529960000000E+05 4.000000000000E+00
27 21  4  6 18  0  0.0-1.079146750271E-04-6.934897101019E-12 0.000000000000E+00
    3.200000000000E+01 5.506250000000E+01 4.098742157634E-09 1.415500904700E+00
    3.088265657425E-06 9.345635655336E-03 9.372830390930E-06 5.153685794830E+03
    2.376000000000E+05-1.024454832077E-07 2.665795807816E+00 1.788139343262E-07
    9.764766758187E-01 2.091250000000E+02 6.008237906082E-01-7.926044437279E-09
   -1.728643433509E-10 1.000000000000E+00 2.152000000000E+03 0.000000000000E+00
    2.000000000000E+00 0.000000000000E+00 1.862645149231E-09 3.200000000000E+01
    2.327460000000E+05 4.000000000000E+00
27 21  4  7 18  0  0.0-1.085125841200E-04-6.934897101019E-12 0.000000000000E+00
    4.200000000000E+01 3.465625000000E+01 4.071598169835E-09 1.450870306663E+00
    2.009794116020E-06 9.347931249067E-03 1.069530844688E-05 5.153685268402E+03
    3.240000000000E+05-1.098960638046E-07 2.665125712338E+00 1.732259988785E-07
    9.764713025206E-01 1.840937500000E+02 6.011216070821E-01-7.857112994580E-09
   -2.478674675321E-10 1.000000000000E+00 2.152000000000E+03 0.000000000000E+00
    2.000000000000E+00 0.000000000000E+00 1.862645149231E-09 4.200000000000E+01
    3.188580000000E+05 4.000000000000E+00
28 21  4  6 23 59 44.0 5.906787700951E-04-5.911715561524E-12 0.000000000000E+00
    1.200000000000E+01-7.875000000000E+00 4.417326856537E-09-9.647217838032E-01
   -3.408640623093E-07 1.774721185211E-02 8.035451173782E-06 5.153666006088E+03
    2.591840000000E+05-3.296881914139E-07 1.712442560826E+00 8.009374141693E-08
    9.730871092583E-01 2.388125000000E+02-1.345492127616E+00-8.247486398056E-09
   -2.157232714544E-10 1.000000000000E+00 2.152000000000E+03 0.000000000000E+00
    2.000000000000E+00 0.000000000000E+00-1.117587089539E-08 1.200000000000E+01
    2.520180000000E+05 4.000000000000E+00
